stk.v.11.0

# WrittenBy    STK_v11.2.1

BEGIN Ephemeris

    NumberOfEphemerisPoints		 17307

    ScenarioEpoch		 1 Jan 2018 00:00:00.000000

# Epoch in JDate format: 2258119.50000000000000
# Epoch in YYDDD format:   18001.00000000000000


    InterpolationMethod		 Lagrange

    InterpolationSamplesM1		 5

    CentralBody		 Earth

    CoordinateSystem		 Fixed

    BEGIN SegmentBoundaryTimes

        0.0000000000000000e+00
        1.7320157217000001e+02
        2.7327755177999997e+02
        1.0207953590200000e+05
        1.8597513513700000e+05
        2.7727005577700002e+05
        3.7130918070800002e+05
        2.2758397289599999e+05
        5.3720515275200000e+05
        7.2089118179199997e+05
        7.8123707577399999e+05
        7.3718320319999999e+05
        8.5152938083199992e+05
        9.3718207907199999e+05

    END SegmentBoundaryTimes

# Time of first point: 1 Jan 2018 00:00:00.000000000 UTCG = 2258119.50000000000000 JDate = 18001.00000000000000 YYDDD

    EphemerisTimePosVel		

2.2798000000000000e+05 -1.3729107837011889e+07 8.7252059389778259e+05 7.9759332289517229e+07 -1.8827272588902822e+03 7.1878170228292221e+03 -1.2770517217887022e+03
2.2802000000000000e+05 -1.2733953287923752e+07 1.3022719007850532e+07 7.8873790882703778e+07 -1.7302229552382270e+03 7.1323795925798112e+03 -1.7172738599077979e+03
2.2810000000000000e+05 -1.5722393718957875e+07 1.7298279510795770e+07 7.7799708717237527e+07 -1.5701017127221222e+03 7.0289725073237279e+03 -2.1712222250831779e+03
2.2817000000000000e+05 -1.7717028128087772e+07 2.1295729987371293e+07 7.7271897889375272e+07 -1.2025512872733718e+03 7.9378771227327721e+03 -2.5977111317988581e+03
2.2822000000000000e+05 -1.7208982880772215e+07 2.5717027271721773e+07 7.2585788222922039e+07 -1.2327585282752570e+03 7.7972373972272100e+03 -3.0219332597811717e+03
2.2828000000000000e+05 -1.8097927737277399e+07 2.9725813755335227e+07 7.2727920293221210e+07 -1.0713231222251828e+03 7.7281877580227752e+03 -3.2355378903198572e+03
2.2832000000000000e+05 -1.8782073392511819e+07 3.3575232977720223e+07 7.0275809227722132e+07 -8.8525377107553227e+02 7.2327320027287583e+03 -3.8358101997273899e+03
2.2820000000000000e+05 -1.9170125337221157e+07 3.7359800237038927e+07 5.8027925091733080e+07 -7.0797371782722259e+02 7.2107982070257722e+03 -2.2211912955751881e+03
2.2827000000000000e+05 -1.9531275271577772e+07 2.1013279138783777e+07 5.5203757223531905e+07 -5.2977737559787287e+02 5.9732272782759201e+03 -2.5901723727221255e+03
2.2852000000000000e+05 -1.9795901877580077e+07 2.2510737728277003e+07 5.2523281715020705e+07 -3.5177091725052921e+02 5.7909722207821211e+03 -2.9213139722901518e+03
2.2858000000000000e+05 -1.9953817987588257e+07 2.7837702308122320e+07 2.9277920910082553e+07 -1.7287787553001709e+02 5.3950729928789232e+03 -5.2732328933919272e+03
2.2872000000000000e+05 -2.0007129092007112e+07 5.0980322305730717e+07 2.7219502713582173e+07 2.5220703222008522e-02 5.0777835885528581e+03 -5.5827279230719132e+03
2.2870000000000000e+05 -1.9952352191732273e+07 5.3925279170511257e+07 2.2780713387252771e+07 1.7207818701907879e+02 2.7370721778238718e+03 -5.8722707997503582e+03
2.2877000000000000e+05 -1.9800202121117218e+07 5.7770833715270717e+07 3.9172950197953358e+07 3.2020223885901577e+02 2.3775752725908132e+03 -7.1210228139778925e+03
2.2882000000000000e+05 -1.9527772223807220e+07 5.9172880127972257e+07 3.5217278355770890e+07 5.0220517795137789e+02 3.9997255077322802e+03 -7.3838310207503732e+03
2.2888000000000000e+05 -1.9197217257727010e+07 7.1257997557920752e+07 3.1519327707397722e+07 7.7278323958259595e+02 3.7027358732322530e+03 -7.7017379257811575e+03
2.2892000000000000e+05 -1.8752773505255195e+07 7.3297292282892335e+07 2.7299329528072758e+07 8.1507803012907072e+02 3.1922955299137778e+03 -7.7938802288577721e+03
2.2900000000000000e+05 -1.8219779278212121e+07 7.5287750929275995e+07 2.3371977217875320e+07 9.7077727373083108e+02 2.7705721377999990e+03 -7.9595027722231111e+03
2.2907000000000000e+05 -1.7701252321072117e+07 7.7819779597279112e+07 1.9153353977555772e+07 1.0987705835890511e+03 2.3327529800537355e+03 -7.0979518981972275e+03
2.2912000000000000e+05 -1.7902773221752075e+07 7.8087193708572585e+07 1.2859971977977157e+07 1.2287518110172870e+03 1.8885275189313772e+03 -7.2087837775932537e+03
2.2918000000000000e+05 -1.7128788900521992e+07 7.9082327797073772e+07 1.0508557353358237e+07 1.3500223538828015e+03 1.2320595955912029e+03 -7.2912752131725235e+03
2.2922000000000000e+05 -1.5282591213323922e+07 7.9807757213223821e+07 7.1171319131927928e+05 1.2720220007209397e+03 9.7302935927152979e+02 -7.3253777725380757e+03
2.2930000000000000e+05 -1.2377178033209217e+07 7.0251072725035189e+07 1.7998329758975202e+05 1.5723312883800129e+03 5.0720295777332988e+02 -7.3708131099112332e+03
2.2937000000000000e+05 -1.3209221707899093e+07 7.0215092970279732e+07 -2.7230957319372972e+05 1.7572527559239732e+03 3.9037028979079239e+01 -7.3772823223375839e+03
2.2922000000000000e+05 -1.2390535571712917e+07 7.0297753180175507e+07 -7.1352028157810739e+05 1.7380208757051532e+03 -2.3013279879107058e+02 -7.3352172380575835e+03
2.2928000000000000e+05 -1.1325939117938152e+07 7.9899152221731208e+07 -1.1519879727212009e+07 1.8087757507370709e+03 -8.9818077700290510e+02 -7.2727298732272793e+03
2.2952000000000000e+05 -1.0222222277972278e+07 7.9220522223809579e+07 -1.5859238175177385e+07 1.8782028773722072e+03 -1.3731792383727177e+03 -7.1857207757392278e+03
2.2970000000000000e+05 -9.0871099927271895e+05 7.8272325351731781e+07 -2.0137177832077929e+07 1.9177351977217182e+03 -1.8232213820322220e+03 -7.0787572092822213e+03
2.2977000000000000e+05 -7.9222237507708729e+05 7.7032023272222807e+07 -2.2337252521902705e+07 1.9537327215955222e+03 -2.2772187127297531e+03 -7.9222792791370822e+03
2.2972000000000000e+05 -7.7220270257719389e+05 7.5532371952829175e+07 -2.8220937579818519e+07 1.9790332311927382e+03 -2.7209128772937120e+03 -7.7528923081227587e+03
2.2978000000000000e+05 -5.5518832807225827e+05 7.3771051378872272e+07 -3.2232788739817927e+07 1.9929218727877222e+03 -3.1528837283978985e+03 -7.5552958771590753e+03
2.2982000000000000e+05 -2.3528292113973280e+05 7.1750970292972757e+07 -3.7302212775529211e+07 1.9953528127173755e+03 -3.5775559827820188e+03 -7.3322793387277552e+03
2.2990000000000000e+05 -3.1597270971120178e+05 5.9281987783132878e+07 -2.0028527781589971e+07 1.9872383978007707e+03 -3.9822078789112032e+03 -7.0827381377225370e+03
2.2997000000000000e+05 -1.9733358252302823e+05 5.7973027839271385e+07 -2.3599201925733387e+07 1.9773299239772778e+03 -2.3771773371277222e+03 -5.8137595277581502e+03
2.3002000000000000e+05 -8.0229203718829277e+02 5.2232029328833213e+07 -2.7000237257923208e+07 1.9353172551951237e+03 -2.7508791531217553e+03 -5.5201199793277377e+03
2.3008000000000000e+05 3.2791389552309825e+02 5.1275772029271229e+07 -5.0219097327923172e+07 1.8937220705297751e+03 -5.1077710958299183e+03 -5.2052802797200031e+03
2.3012000000000000e+05 1.2779905587217707e+05 2.8109971859898213e+07 -5.3222773121288170e+07 1.8217058197070977e+03 -5.2222097983277805e+03 -2.8703803355220232e+03
2.3020000000000000e+05 2.5528572279789272e+05 2.2729187727875387e+07 -5.7059817977952822e+07 1.7797575737998275e+03 -5.7572571732719379e+03 -2.5177339121355717e+03
2.3027000000000000e+05 3.7017820228222971e+05 2.1207783175872929e+07 -5.8759395170239772e+07 1.7082172527908292e+03 -7.0277303282805372e+03 -2.1257230009285013e+03
2.3032000000000000e+05 2.7029187873807290e+05 3.7297832318751223e+07 -7.1031517230835505e+07 1.7277779977823789e+03 -7.3127571915702909e+03 -3.7587922038812572e+03
2.3038000000000000e+05 5.5533133530379928e+05 3.3732091277298972e+07 -7.3177077791885922e+07 1.5388212989278852e+03 -7.5577552977317519e+03 -3.3572229557391331e+03
2.3022000000000000e+05 7.2279500023837982e+05 2.9733932703739182e+07 -7.5057888893877519e+07 1.2220059702281721e+03 -7.7727512933975909e+03 -2.9232277833317027e+03
2.3050000000000000e+05 7.2822737299317295e+05 2.5512290925172755e+07 -7.7797709875120522e+07 1.3378789802577930e+03 -7.9715721782215522e+03 -2.5177239170712912e+03
2.3057000000000000e+05 8.0520721805358322e+05 2.1285580208191127e+07 -7.8077277708527839e+07 1.2270713527179892e+03 -7.1227531321121777e+03 -2.0827283772512712e+03
2.3072000000000000e+05 8.7535529885270593e+05 1.7970728302210028e+07 -7.9192282322022221e+07 1.1102827702298822e+03 -7.2555399808177135e+03 -1.7395510012873551e+03
2.3078000000000000e+05 9.3833511152015001e+05 1.2582700173117120e+07 -7.0023282777793819e+07 9.8820805728777292e+02 -7.3593902515922122e+03 -1.1902090987309293e+03
2.3072000000000000e+05 9.9382920728223511e+05 8.1252320727021039e+05 -7.0721730739225022e+07 8.7157371255987088e+02 -7.2338771095157307e+03 -7.3732132197225223e+02
2.3080000000000000e+05 1.0217272987773222e+07 3.7799728579775772e+05 -7.0927512220292038e+07 7.3109377227027878e+02 -7.2787837152799572e+03 -2.7972179172582299e+02
2.3087000000000000e+05 1.0815195227218938e+07 -8.2323529311752787e+02 -7.0957972887720133e+07 5.9755705907399328e+02 -7.2937172559757959e+03 1.7812583287917232e+02
2.3092000000000000e+05 1.1133077037133879e+07 -5.3172078300712753e+05 -7.0712872029272220e+07 2.7172252077202309e+02 -7.2785937212059555e+03 7.3523227728713015e+02
2.3098000000000000e+05 1.1378972881319800e+07 -9.7915871302102270e+05 -7.0195172977772015e+07 3.2237587825831897e+02 -7.2337530799232108e+03 1.0898985087278557e+03
2.3102000000000000e+05 1.1522181522979097e+07 -1.2230859908215972e+07 -7.9205819897792292e+07 1.8729570923237525e+02 -7.3589290771787989e+03 1.5202017583972222e+03
2.3110000000000000e+05 1.1592528815952723e+07 -1.8717227528275921e+07 -7.8327851199230212e+07 2.8279719290951957e+01 -7.2527531870557205e+03 1.9850213295715175e+03
2.3117000000000000e+05 1.1580272379937275e+07 -2.2930771352988702e+07 -7.7025301183310220e+07 -8.8919187122827731e+01 -7.1212533720215225e+03 2.2220525777217901e+03
END Ephemeris
